NORAD_CAT_ID,OBJECT_NAME,OBJECT_TYPE,EPOCH,MEAN_MOTION,ECCENTRICITY,INCLINATION,RA_OF_ASC_NODE,ARG_OF_PERICENTER,MEAN_ANOMALY,BSTAR,MEAN_MOTION_DOT,MEAN_MOTION_DDOT,TLE_LINE0,TLE_LINE1,TLE_LINE2,SEMIMAJOR_AXIS,PERIOD,APOGEE,PERIGEE,DECAYED
53244.0,STARLINK-4125,PAYLOAD,2024-05-23 12:29:56,15.08871494,5e-05,53.2179,265.3681,90.9329,269.1721,-0.001134,-0.00018305,0.0,0 STARLINK-4125,1 53244U 22086C   24144.52079281 -.00018305  00000-0 -11340-2 0  9995,2 53244  53.2179 265.3681 0000500  90.9329 269.1721 15.08871494101833,6917.784,95.436,539.995,539.303,0.0
53244.0,STARLINK-4125,PAYLOAD,2024-05-23 14:05:21,15.08834488,0.0001223,53.2173,265.0707,53.687,306.4235,2.8822e-05,1.71e-06,0.0,0 STARLINK-4125,1 53244U 22086C   24144.58705599  .00000171  00000-0  28822-4 0  9994,2 53244  53.2173 265.0707 0001223  53.6870 306.4235 15.08834488102347,6917.897,95.438,540.608,538.916,0.0
53244.0,STARLINK-4125,PAYLOAD,2024-05-24 13:56:08,15.0884111,0.0001628,53.2167,260.6126,41.0829,319.0286,0.00023551,3.462e-05,0.0,0 STARLINK-4125,1 53244U 22086C   24145.58065553  .00003462  00000-0  23551-3 0  9993,2 53244  53.2167 260.6126 0001628  41.0829 319.0286 15.08841110102492,6917.877,95.437,540.868,538.616,0.0
53244.0,STARLINK-4125,PAYLOAD,2024-05-24 17:06:54,15.08852082,8.73e-05,53.2161,260.01,107.3801,252.7286,0.00037203,5.64e-05,0.0,0 STARLINK-4125,1 53244U 22086C   24145.71312710  .00005640  00000-0  37203-3 0  9997,2 53244  53.2161 260.0100 0000873 107.3801 252.7286 15.08852082102010,6917.843,95.437,540.312,539.105,0.0
53244.0,STARLINK-4125,PAYLOAD,2024-05-25 01:03:50,15.0884074,6.91e-05,53.2165,258.5283,81.8701,278.237,0.00010562,1.394e-05,0.0,0 STARLINK-4125,1 53244U 22086C   24146.04433212  .00001394  00000-0  10562-3 0  9996,2 53244  53.2165 258.5283 0000691  81.8701 278.2370 15.08840740102061,6917.878,95.438,540.221,539.265,0.0
53244.0,STARLINK-4125,PAYLOAD,2024-05-25 13:46:55,15.08839303,8.1e-05,53.2153,256.1483,94.6847,265.4237,4.7641e-05,4.71e-06,0.0,0 STARLINK-4125,1 53244U 22086C   24146.57425386  .00000471  00000-0  47641-4 0  9991,2 53244  53.2153 256.1483 0000810  94.6847 265.4237 15.08839303102647,6917.883,95.438,540.308,539.187,0.0
53244.0,STARLINK-4125,PAYLOAD,2024-05-26 12:02:19,15.08843642,8.43e-05,53.2172,251.986,52.0287,308.0782,6.5605e-06,-1.83e-06,0.0,0 STARLINK-4125,1 53244U 22086C   24147.50161421 -.00000183  00000-0  65605-5 0  9994,2 53244  53.2172 251.9860 0000843  52.0287 308.0782 15.08843642102282,6917.869,95.437,540.317,539.151,0.0
53244.0,STARLINK-4125,PAYLOAD,2024-05-26 13:37:42,15.0884616,5.69e-05,53.2171,251.687,103.729,256.3765,3.8513e-05,3.26e-06,0.0,0 STARLINK-4125,1 53244U 22086C   24147.56785036  .00000326  00000-0  38513-4 0  9999,2 53244  53.2171 251.6870 0000569 103.7290 256.3765 15.08846160102792,6917.862,95.437,540.12,539.333,0.0
53244.0,STARLINK-4125,PAYLOAD,2024-05-27 13:28:30,15.08833738,0.0001029,53.2187,247.2292,95.1631,264.9479,5.4874e-05,5.86e-06,0.0,0 STARLINK-4125,1 53244U 22086C   24148.56146001  .00000586  00000-0  54874-4 0  9999,2 53244  53.2187 247.2292 0001029  95.1631 264.9479 15.08833738102449,6917.9,95.438,540.476,539.053,0.0
53244.0,STARLINK-4125,PAYLOAD,2024-05-27 16:39:16,15.08836992,9.61e-05,53.2176,246.6311,79.3446,280.7655,6.2796e-05,7.12e-06,0.0,0 STARLINK-4125,1 53244U 22086C   24148.69393792  .00000712  00000-0  62796-4 0  9997,2 53244  53.2176 246.6311 0000961  79.3446 280.7655 15.08836992102968,6917.89,95.438,540.419,539.09,0.0
53244.0,STARLINK-4125,PAYLOAD,2024-05-28 13:19:16,15.08847711,8.48e-05,53.2174,242.765,89.6583,270.4506,0.00011203,1.496e-05,0.0,0 STARLINK-4125,1 53244U 22086C   24149.55504858  .00001496  00000-0  11203-3 0  9996,2 53244  53.2174 242.7650 0000848  89.6583 270.4506 15.08847711102590,6917.857,95.437,540.308,539.135,0.0
53244.0,STARLINK-4125,PAYLOAD,2024-05-29 05:13:08,15.08838318,6.89e-05,53.2159,239.793,53.7601,306.3454,2.2758e-05,7.5e-07,0.0,0 STARLINK-4125,1 53244U 22086C   24150.21745857  .00000075  00000-0  22758-4 0  9997,2 53244  53.2159 239.7930 0000689  53.7601 306.3454 15.08838318102691,6917.886,95.438,540.227,539.274,0.0
53244.0,STARLINK-4125,PAYLOAD,2024-05-29 11:34:41,15.08837952,9.46e-05,53.2163,238.6026,53.0353,307.0725,3.4162e-05,2.56e-06,0.0,0 STARLINK-4125,1 53244U 22086C   24150.48241991  .00000256  00000-0  34162-4 0  9999,2 53244  53.2163 238.6026 0000946  53.0353 307.0725 15.08837952103236,6917.887,95.438,540.406,539.097,0.0
53244.0,STARLINK-4125,PAYLOAD,2024-05-30 13:00:50,15.08847092,0.0001145,53.2173,233.8441,59.3715,300.7389,0.00018743,2.697e-05,0.0,0 STARLINK-4125,1 53244U 22086C   24151.54225090  .00002697  00000-0  18743-3 0  9996,2 53244  53.2173 233.8441 0001145  59.3715 300.7389 15.08847092103397,6917.859,95.437,540.516,538.932,0.0
53244.0,STARLINK-4125,PAYLOAD,2024-05-30 13:00:51,15.08825605,0.0001118,53.2171,233.8442,72.6277,287.4837,0.00048688,7.466e-05,0.0,0 STARLINK-4125,1 53244U 22086C   24151.54225729  .00007466  00000-0  48688-3 0  9995,2 53244  53.2171 233.8442 0001118  72.6277 287.4837 15.08825605102896,6917.924,95.438,540.563,539.016,0.0
53244.0,STARLINK-4125,PAYLOAD,2024-05-31 04:54:42,15.08847657,0.0001907,53.2182,230.8788,48.8629,311.2527,0.00010119,1.323e-05,0.0,0 STARLINK-4125,1 53244U 22086C   24152.20465378  .00001323  00000-0  10119-3 0  9999,2 53244  53.2182 230.8788 0001907  48.8629 311.2527 15.08847657102994,6917.857,95.437,541.041,538.403,0.0
53244.0,STARLINK-4125,PAYLOAD,2024-05-31 12:51:38,15.08841604,0.0001669,53.2178,229.3872,45.6697,314.4432,0.00015262,2.142e-05,0.0,0 STARLINK-4125,1 53244U 22086C   24152.53585667  .00002142  00000-0  15262-3 0  9993,2 53244  53.2178 229.3872 0001669  45.6697 314.4432 15.08841604103549,6917.875,95.437,540.895,538.586,0.0
53244.0,STARLINK-4125,PAYLOAD,2024-05-31 22:23:56,15.08842788,9.33e-05,53.2161,227.601,82.3157,277.7941,8.6666e-05,1.092e-05,0.0,0 STARLINK-4125,1 53244U 22086C   24152.93329340  .00001092  00000-0  86666-4 0  9991,2 53244  53.2161 227.6010 0000933  82.3157 277.7941 15.08842788103605,6917.872,95.437,540.382,539.091,0.0
53244.0,STARLINK-4125,PAYLOAD,2024-06-01 11:07:01,15.08841898,0.0001062,53.2168,225.2215,84.0357,276.0757,2.6388e-05,1.32e-06,0.0,0 STARLINK-4125,1 53244U 22086C   24153.46321558  .00000132  00000-0  26388-4 0  9992,2 53244  53.2168 225.2215 0001062  84.0357 276.0757 15.08841898103684,6917.875,95.437,540.474,539.005,0.0
53244.0,STARLINK-4125,PAYLOAD,2024-06-02 04:36:16,15.08836913,0.000119,53.2161,221.9512,87.4106,272.7022,3.8859e-05,3.31e-06,0.0,0 STARLINK-4125,1 53244U 22086C   24154.19185741  .00000331  00000-0  38859-4 0  9992,2 53244  53.2161 221.9512 0001190  87.4106 272.7022 15.08836913103298,6917.89,95.438,540.578,538.932,0.0
53244.0,STARLINK-4125,PAYLOAD,2024-06-02 10:57:48,15.08837683,0.0001149,53.2163,220.7607,93.7532,266.3591,7.7084e-05,9.39e-06,0.0,0 STARLINK-4125,1 53244U 22086C   24154.45681588  .00000939  00000-0  77084-4 0  9998,2 53244  53.2163 220.7607 0001149  93.7532 266.3591 15.08837683103834,6917.887,95.438,540.547,538.958,0.0
53244.0,STARLINK-4125,PAYLOAD,2024-06-03 10:48:36,15.08834993,0.000112,53.2161,216.3005,95.9409,264.1711,1.3701e-05,-7e-07,0.0,0 STARLINK-4125,1 53244U 22086C   24155.45042209 -.00000070  00000-0  13701-4 0  9993,2 53244  53.2161 216.3005 0001120  95.9409 264.1711 15.08834993103483,6917.896,95.438,540.535,538.986,0.0
53244.0,STARLINK-4125,PAYLOAD,2024-06-04 10:39:23,15.088394,0.0001035,53.2159,211.841,91.7216,268.3895,9.6343e-05,1.246e-05,0.0,0 STARLINK-4125,1 53244U 22086C   24156.44402055  .00001246  00000-0  96343-4 0  9990,2 53244  53.2159 211.8410 0001035  91.7216 268.3895 15.08839400104135,6917.882,95.438,540.463,539.031,0.0
53244.0,STARLINK-4125,PAYLOAD,2024-06-04 20:11:42,15.08840182,0.0001053,53.2156,210.0564,90.2794,269.8319,0.00010926,1.452e-05,0.0,0 STARLINK-4125,1 53244U 22086C   24156.84146020  .00001452  00000-0  10926-3 0  9992,2 53244  53.2156 210.0564 0001053  90.2794 269.8319 15.08840182103694,6917.88,95.438,540.473,539.016,0.0
53244.0,STARLINK-4125,PAYLOAD,2024-06-05 10:30:10,15.08843442,0.0001064,53.2157,207.381,94.1508,265.9606,0.00014617,2.039e-05,0.0,0 STARLINK-4125,1 53244U 22086C   24157.43761806  .00002039  00000-0  14617-3 0  9996,2 53244  53.2157 207.3810 0001064  94.1508 265.9606 15.08843442104280,6917.87,95.437,540.471,538.999,0.0
53244.0,STARLINK-4125,PAYLOAD,2024-06-05 20:02:29,15.08842478,0.0001107,53.2161,205.5977,95.6028,264.509,0.00012464,1.697e-05,0.0,0 STARLINK-4125,1 53244U 22086C   24157.83505924  .00001697  00000-0  12464-3 0  9994,2 53244  53.2161 205.5977 0001107  95.6028 264.5090 15.08842478104347,6917.873,95.437,540.504,538.972,0.0
53244.0,STARLINK-4125,PAYLOAD,2024-06-06 10:20:57,15.08837681,0.0001383,53.2174,202.9226,105.9667,254.1478,3.3786e-05,2.5e-06,0.0,0 STARLINK-4125,1 53244U 22086C   24158.43122548  .00000250  00000-0  33786-4 0  9993,2 53244  53.2174 202.9226 0001383 105.9667 254.1478 15.08837681103938,6917.887,95.438,540.709,538.796,0.0
53244.0,STARLINK-4125,PAYLOAD,2024-06-07 08:36:22,15.08833949,0.0001379,53.217,198.7605,111.5837,248.5302,-6.5282e-05,-1.327e-05,0.0,0 STARLINK-4125,1 53244U 22086C   24159.35859375 -.00001327  00000-0 -65282-4 0  9994,2 53244  53.2170 198.7605 0001379 111.5837 248.5302 15.08833949104076,6917.899,95.438,540.718,538.81,0.0
53244.0,STARLINK-4125,PAYLOAD,2024-06-07 19:44:03,15.08840674,0.0001031,53.2146,196.6755,89.7638,270.3472,2.8406e-05,1.64e-06,0.0,0 STARLINK-4125,1 53244U 22086C   24159.82226810  .00000164  00000-0  28406-4 0  9991,2 53244  53.2146 196.6755 0001031  89.7638 270.3472 15.08840674104144,6917.878,95.438,540.457,539.03,0.0
53244.0,STARLINK-4125,PAYLOAD,2024-06-08 10:02:31,15.08850642,0.0001224,53.216,193.9986,85.6325,274.4807,0.00015607,2.198e-05,0.0,0 STARLINK-4125,1 53244U 22086C   24160.41841966  .00002198  00000-0  15607-3 0  9990,2 53244  53.2160 193.9986 0001224  85.6325 274.4807 15.08850642104736,6917.848,95.437,540.56,538.866,0.0
